[{"OBJECT_NAME":"STARLINK-32491","OBJECT_ID":"2024-216M","EPOCH":"2026-01-13T22:12:25.342848","MEAN_MOTION":15.27587873,"ECCENTRICITY":0.00013744,"INCLINATION":43.0004,"RA_OF_ASC_NODE":213.0818,"ARG_OF_PERICENTER":263.2431,"MEAN_ANOMALY":96.8264,"EPHEMERIS_TYPE":0,"CLASSIFICATION_TYPE":"U","NORAD_CAT_ID":62043,"ELEMENT_SET_NO":999,"REV_AT_EPOCH":6541,"BSTAR":0.00052889372,"MEAN_MOTION_DOT":0.00014324,"MEAN_MOTION_DDOT":0},{"OBJECT_NAME":"STARLINK-32577","OBJECT_ID":"2024-216N","EPOCH":"2026-01-13T23:04:01.123104","MEAN_MOTION":15.27587164,"ECCENTRICITY":0.00013581,"INCLINATION":42.9998,"RA_OF_ASC_NODE":212.4903,"ARG_OF_PERICENTER":272.1161,"MEAN_ANOMALY":87.9536,"EPHEMERIS_TYPE":0,"CLASSIFICATION_TYPE":"U","NORAD_CAT_ID":62044,"ELEMENT_SET_NO":999,"REV_AT_EPOCH":6543,"BSTAR":0.00051783863,"MEAN_MOTION_DOT":0.00014018,"MEAN_MOTION_DDOT":0},{"OBJECT_NAME":"STARLINK-32618","OBJECT_ID":"2024-216P","EPOCH":"2026-01-13T19:57:06.254496","MEAN_MOTION":15.275746,"ECCENTRICITY":0.00012636,"INCLINATION":42.9988,"RA_OF_ASC_NODE":206.3139,"ARG_OF_PERICENTER":256.7701,"MEAN_ANOMALY":103.301,"EPHEMERIS_TYPE":0,"CLASSIFICATION_TYPE":"U","NORAD_CAT_ID":62045,"ELEMENT_SET_NO":999,"REV_AT_EPOCH":6548,"BSTAR":0.0005815076,"MEAN_MOTION_DOT":0.00015771,"MEAN_MOTION_DDOT":0},{"OBJECT_NAME":"STARLINK-32598","OBJECT_ID":"2024-216Q","EPOCH":"2026-01-13T21:53:15.281088","MEAN_MOTION":15.27584296,"ECCENTRICITY":0.00015916,"INCLINATION":43.0027,"RA_OF_ASC_NODE":205.2025,"ARG_OF_PERICENTER":271.5367,"MEAN_ANOMALY":88.5302,"EPHEMERIS_TYPE":0,"CLASSIFICATION_TYPE":"U","NORAD_CAT_ID":62046,"ELEMENT_SET_NO":999,"REV_AT_EPOCH":6550,"BSTAR":0.0004948412,"MEAN_MOTION_DOT":0.00013381,"MEAN_MOTION_DDOT":0},{"OBJECT_NAME":"STARLINK-32630","OBJECT_ID":"2024-216R","EPOCH":"2026-01-13T21:46:31.043136","MEAN_MOTION":15.27586075,"ECCENTRICITY":0.00014763,"INCLINATION":43.0008,"RA_OF_ASC_NODE":212.9457,"ARG_OF_PERICENTER":267.5703,"MEAN_ANOMALY":92.498,"EPHEMERIS_TYPE":0,"CLASSIFICATION_TYPE":"U","NORAD_CAT_ID":62047,"ELEMENT_SET_NO":999,"REV_AT_EPOCH":6541,"BSTAR":0.00048602353,"MEAN_MOTION_DOT":0.00013139,"MEAN_MOTION_DDOT":0},{"OBJECT_NAME":"STARLINK-32599","OBJECT_ID":"2024-216S","EPOCH":"2026-01-13T21:52:04.600704","MEAN_MOTION":15.2757333,"ECCENTRICITY":9.853e-5,"INCLINATION":42.9988,"RA_OF_ASC_NODE":212.9734,"ARG_OF_PERICENTER":288.6198,"MEAN_ANOMALY":71.4546,"EPHEMERIS_TYPE":0,"CLASSIFICATION_TYPE":"U","NORAD_CAT_ID":62048,"ELEMENT_SET_NO":999,"REV_AT_EPOCH":6541,"BSTAR":0.00037070151,"MEAN_MOTION_DOT":9.951e-5,"MEAN_MOTION_DDOT":0},{"OBJECT_NAME":"STARLINK-32473","OBJECT_ID":"2024-216T","EPOCH":"2026-01-13T22:52:27.846048","MEAN_MOTION":15.27577855,"ECCENTRICITY":0.00010367,"INCLINATION":43.0003,"RA_OF_ASC_NODE":205.5073,"ARG_OF_PERICENTER":252.4056,"MEAN_ANOMALY":107.6682,"EPHEMERIS_TYPE":0,"CLASSIFICATION_TYPE":"U","NORAD_CAT_ID":62049,"ELEMENT_SET_NO":999,"REV_AT_EPOCH":6434,"BSTAR":0.00037800871,"MEAN_MOTION_DOT":0.00010154,"MEAN_MOTION_DDOT":0},{"OBJECT_NAME":"STARLINK-32492","OBJECT_ID":"2024-216U","EPOCH":"2026-01-13T22:49:12.973440","MEAN_MOTION":15.27592535,"ECCENTRICITY":0.0002288,"INCLINATION":43.0015,"RA_OF_ASC_NODE":212.412,"ARG_OF_PERICENTER":258.576,"MEAN_ANOMALY":101.4834,"EPHEMERIS_TYPE":0,"CLASSIFICATION_TYPE":"U","NORAD_CAT_ID":62050,"ELEMENT_SET_NO":999,"REV_AT_EPOCH":6542,"BSTAR":0.00063755112,"MEAN_MOTION_DOT":0.0001733,"MEAN_MOTION_DDOT":0},{"OBJECT_NAME":"STARLINK-32496","OBJECT_ID":"2024-216V","EPOCH":"2026-01-13T22:06:52.791840","MEAN_MOTION":15.27573851,"ECCENTRICITY":0.00010176,"INCLINATION":43.0015,"RA_OF_ASC_NODE":213.0533,"ARG_OF_PERICENTER":279.3756,"MEAN_ANOMALY":80.698,"EPHEMERIS_TYPE":0,"CLASSIFICATION_TYPE":"U","NORAD_CAT_ID":62051,"ELEMENT_SET_NO":999,"REV_AT_EPOCH":6541,"BSTAR":0.00037761887,"MEAN_MOTION_DOT":0.00010142,"MEAN_MOTION_DDOT":0},{"OBJECT_NAME":"STARLINK-32495","OBJECT_ID":"2024-216W","EPOCH":"2026-01-13T22:23:18.760128","MEAN_MOTION":15.27578766,"ECCENTRICITY":0.00019242,"INCLINATION":43.0024,"RA_OF_ASC_NODE":212.2794,"ARG_OF_PERICENTER":257.5416,"MEAN_ANOMALY":102.522,"EPHEMERIS_TYPE":0,"CLASSIFICATION_TYPE":"U","NORAD_CAT_ID":62052,"ELEMENT_SET_NO":999,"REV_AT_EPOCH":6542,"BSTAR":0.00046597548,"MEAN_MOTION_DOT":0.00012582,"MEAN_MOTION_DDOT":0},{"OBJECT_NAME":"STARLINK-32494","OBJECT_ID":"2024-216X","EPOCH":"2026-01-13T21:26:09.894048","MEAN_MOTION":15.27580423,"ECCENTRICITY":0.00016063,"INCLINATION":42.9981,"RA_OF_ASC_NODE":212.8375,"ARG_OF_PERICENTER":256.407,"MEAN_ANOMALY":103.6603,"EPHEMERIS_TYPE":0,"CLASSIFICATION_TYPE":"U","NORAD_CAT_ID":62053,"ELEMENT_SET_NO":999,"REV_AT_EPOCH":6541,"BSTAR":0.00041056535,"MEAN_MOTION_DOT":0.00011053,"MEAN_MOTION_DDOT":0},{"OBJECT_NAME":"STARLINK-32408","OBJECT_ID":"2024-216Y","EPOCH":"2026-01-13T22:46:54.090624","MEAN_MOTION":15.27570665,"ECCENTRICITY":0.00016184,"INCLINATION":42.9993,"RA_OF_ASC_NODE":205.4777,"ARG_OF_PERICENTER":264.5588,"MEAN_ANOMALY":95.5079,"EPHEMERIS_TYPE":0,"CLASSIFICATION_TYPE":"U","NORAD_CAT_ID":62054,"ELEMENT_SET_NO":999,"REV_AT_EPOCH":6551,"BSTAR":0.00048809951,"MEAN_MOTION_DOT":0.0001319,"MEAN_MOTION_DDOT":0},{"OBJECT_NAME":"STARLINK-32571","OBJECT_ID":"2024-216Z","EPOCH":"2026-01-13T21:47:41.796096","MEAN_MOTION":15.27586447,"ECCENTRICITY":0.00019734,"INCLINATION":43.0014,"RA_OF_ASC_NODE":205.169,"ARG_OF_PERICENTER":272.4074,"MEAN_ANOMALY":87.6552,"EPHEMERIS_TYPE":0,"CLASSIFICATION_TYPE":"U","NORAD_CAT_ID":62055,"ELEMENT_SET_NO":999,"REV_AT_EPOCH":6560,"BSTAR":0.00026961684,"MEAN_MOTION_DOT":7.166e-5,"MEAN_MOTION_DDOT":0},{"OBJECT_NAME":"STARLINK-11465 [DTC]","OBJECT_ID":"2024-217A","EPOCH":"2026-01-13T22:00:14.832576","MEAN_MOTION":15.69840899,"ECCENTRICITY":0.00013693,"INCLINATION":53.1568,"RA_OF_ASC_NODE":341.0622,"ARG_OF_PERICENTER":106.4103,"MEAN_ANOMALY":253.7065,"EPHEMERIS_TYPE":0,"CLASSIFICATION_TYPE":"U","NORAD_CAT_ID":62057,"ELEMENT_SET_NO":999,"REV_AT_EPOCH":6657,"BSTAR":0.0015891884,"MEAN_MOTION_DOT":0.00197666,"MEAN_MOTION_DDOT":0},{"OBJECT_NAME":"STARLINK-11426 [DTC]","OBJECT_ID":"2024-217B","EPOCH":"2026-01-13T21:53:10.846176","MEAN_MOTION":15.69790116,"ECCENTRICITY":1.941e-5,"INCLINATION":53.1569,"RA_OF_ASC_NODE":341.0307,"ARG_OF_PERICENTER":353.6344,"MEAN_ANOMALY":6.4671,"EPHEMERIS_TYPE":0,"CLASSIFICATION_TYPE":"U","NORAD_CAT_ID":62058,"ELEMENT_SET_NO":999,"REV_AT_EPOCH":6651,"BSTAR":0.001369961,"MEAN_MOTION_DOT":0.00169377,"MEAN_MOTION_DDOT":0},{"OBJECT_NAME":"STARLINK-11454 [DTC]","OBJECT_ID":"2024-217C","EPOCH":"2026-01-13T21:10:56.846496","MEAN_MOTION":15.69754624,"ECCENTRICITY":0.00023013,"INCLINATION":53.1578,"RA_OF_ASC_NODE":341.5695,"ARG_OF_PERICENTER":77.9499,"MEAN_ANOMALY":282.1776,"EPHEMERIS_TYPE":0,"CLASSIFICATION_TYPE":"U","NORAD_CAT_ID":62059,"ELEMENT_SET_NO":999,"REV_AT_EPOCH":6656,"BSTAR":0.0014025043,"MEAN_MOTION_DOT":0.00173243,"MEAN_MOTION_DDOT":0}]
