STARLINK-32491          
1 62043U 24216M   26013.92529332  .00014324  00000+0  52889-3 0  9995
2 62043  43.0004 213.0818 0001374 263.2431  96.8264 15.27587873 65411
STARLINK-32577          
1 62044U 24216N   26013.96112411  .00014018  00000+0  51784-3 0  9999
2 62044  42.9998 212.4903 0001358 272.1161  87.9536 15.27587164 65439
STARLINK-32618          
1 62045U 24216P   26013.83132239  .00015771  00000+0  58151-3 0  9998
2 62045  42.9988 206.3139 0001263 256.7701 103.3010 15.27574600 65481
STARLINK-32598          
1 62046U 24216Q   26013.91198242  .00013381  00000+0  49484-3 0  9998
2 62046  43.0027 205.2025 0001591 271.5367  88.5302 15.27584296 65500
STARLINK-32630          
1 62047U 24216R   26013.90730374  .00013139  00000+0  48602-3 0  9998
2 62047  43.0008 212.9457 0001476 267.5703  92.4980 15.27586075 65418
STARLINK-32599          
1 62048U 24216S   26013.91116436  .00009951  00000+0  37070-3 0  9991
2 62048  42.9988 212.9734 0000985 288.6198  71.4546 15.27573330 65413
STARLINK-32473          
1 62049U 24216T   26013.95310007  .00010154  00000+0  37801-3 0  9995
2 62049  43.0003 205.5073 0001036 252.4056 107.6682 15.27577855 64348
STARLINK-32492          
1 62050U 24216U   26013.95084460  .00017330  00000+0  63755-3 0  9998
2 62050  43.0015 212.4120 0002288 258.5760 101.4834 15.27592535 65425
STARLINK-32496          
1 62051U 24216V   26013.92144435  .00010142  00000+0  37762-3 0  9998
2 62051  43.0015 213.0533 0001017 279.3756  80.6980 15.27573851 65415
STARLINK-32495          
1 62052U 24216W   26013.93285602  .00012582  00000+0  46598-3 0  9999
2 62052  43.0024 212.2794 0001924 257.5416 102.5220 15.27578766 65426
STARLINK-32494          
1 62053U 24216X   26013.89317007  .00011053  00000+0  41057-3 0  9997
2 62053  42.9981 212.8375 0001606 256.4070 103.6603 15.27580423 65418
STARLINK-32408          
1 62054U 24216Y   26013.94923716  .00013190  00000+0  48810-3 0  9992
2 62054  42.9993 205.4777 0001618 264.5588  95.5079 15.27570665 65517
STARLINK-32571          
1 62055U 24216Z   26013.90812264  .00007166  00000+0  26962-3 0  9994
2 62055  43.0014 205.1690 0001973 272.4074  87.6552 15.27586447 65600
STARLINK-11465 [DTC]    
1 62057U 24217A   26013.91683834  .00197666  00000+0  15892-2 0  9991
2 62057  53.1568 341.0622 0001369 106.4103 253.7065 15.69840899 66573
STARLINK-11426 [DTC]    
1 62058U 24217B   26013.91193109  .00169377  00000+0  13700-2 0  9997
2 62058  53.1569 341.0307 0000194 353.6344   6.4671 15.69790116 66519
STARLINK-11454 [DTC]    
1 62059U 24217C   26013.88260239  .00173243  00000+0  14025-2 0  9991
2 62059  53.1578 341.5695 0002301  77.9499 282.1776 15.69754624 66562
